[{"OBJECT_NAME":"SPEQTRE","OBJECT_ID":"2025-276DH","EPOCH":"2026-03-09T18:08:43.723104","MEAN_MOTION":15.19499769,"ECCENTRICITY":0.00013871,"INCLINATION":97.4277,"RA_OF_ASC_NODE":144.1551,"ARG_OF_PERICENTER":149.2003,"MEAN_ANOMALY":210.9313,"EPHEMERIS_TYPE":0,"CLASSIFICATION_TYPE":"U","NORAD_CAT_ID":66769,"ELEMENT_SET_NO":999,"REV_AT_EPOCH":1533,"BSTAR":0.00033482906,"MEAN_MOTION_DOT":7.042e-5,"MEAN_MOTION_DDOT":0},{"OBJECT_NAME":"TWILIGHT-1 OBJECT AH","OBJECT_ID":"2026-004AH","EPOCH":"2026-03-09T22:52:54.416640","MEAN_MOTION":15.18463683,"ECCENTRICITY":0.00080362,"INCLINATION":97.4496,"RA_OF_ASC_NODE":69.4327,"ARG_OF_PERICENTER":333.3354,"MEAN_ANOMALY":26.7466,"EPHEMERIS_TYPE":0,"CLASSIFICATION_TYPE":"U","NORAD_CAT_ID":67394,"ELEMENT_SET_NO":999,"REV_AT_EPOCH":870,"BSTAR":0.0001790114,"MEAN_MOTION_DOT":3.623e-5,"MEAN_MOTION_DDOT":0}]
